COSMOS 2419 (714)       
1 28915U 05050A   16285.09550796  .00000046  00000-0  00000+0 0  9997
2 28915  65.3770  74.2519 0014537 359.2462 142.2447  2.13105741 84026
COSMOS 2425 (716)       
1 29670U 06062A   16284.45750797  .00000020  00000-0  10000-3 0  9999
2 29670  65.5801 313.2794 0020491 338.1499  89.6387  2.13104958 76213
COSMOS 2426 (717)       
1 29671U 06062B   16285.44591519  .00000025  00000-0  10000-3 0  9990
2 29671  65.5970 313.3304 0018453 172.7345 153.4027  2.13102980 76232
COSMOS 2424 (715)       
1 29672U 06062C   16284.69230716  .00000021  00000-0  10000-3 0  9992
2 29672  65.5835 313.2817 0017664 172.5604 111.4961  2.13102327 76214
COSMOS 2433 (720)       
1 32275U 07052A   16285.07905875  .00000045  00000-0  10000-3 0  9999
2 32275  65.3912  74.0266 0001421 192.6017 184.1369  2.13104855 69743
COSMOS 2432 (719)       
1 32276U 07052B   16284.73685906  .00000046  00000-0  10000-3 0  9993
2 32276  65.4038  74.1057 0009847 346.1134  81.6549  2.13104124 69738
COSMOS 2434 (721)       
1 32393U 07065A   16284.50266135  .00000021  00000-0  00000+0 0  9999
2 32393  65.1989 312.5462 0003364 153.7727  31.9678  2.13102915 68430
COSMOS 2436 (723)       
1 32395U 07065C   16285.15271589  .00000024  00000-0  10000-3 0  9990
2 32395  65.2111 312.5670 0015753 345.1077  71.3569  2.13102926 68384
COSMOS 2443 (725)       
1 33379U 08046B   16284.78459419  .00000044  00000-0  10000-3 0  9993
2 33379  65.3211  73.4414 0017284 179.9763 234.4578  2.13101159 62602
COSMOS 2456 (730)       
1 36111U 09070A   16284.57546396 -.00000001  00000-0  00000+0 0  9995
2 36111  64.1798 192.1143 0004776 311.4389 100.2293  2.13103033 53105
COSMOS 2457 (733)       
1 36112U 09070B   16285.41502690  .00000001  00000-0  00000+0 0  9998
2 36112  64.1623 192.0099 0006492 172.1622 293.3134  2.13101761 53127
COSMOS 2458 (734)       
1 36113U 09070C   16285.10964341 -.00000000  00000-0  10000-3 0  9995
2 36113  64.1674 192.0265 0001326 345.6356 293.1938  2.13101902 53117
COSMOS 2459 (731)       
1 36400U 10007A   16284.61916440  .00000044  00000-0  10000-3 0  9995
2 36400  65.2992  73.1776 0026602 357.3412 250.9228  2.13102249 51457
COSMOS 2461 (735)       
1 36401U 10007B   16284.41151869  .00000044  00000-0  10000-3 0  9990
2 36401  65.2936  73.1648 0008198  82.7657 276.8006  2.13102290 51440
COSMOS 2460 (732)       
1 36402U 10007C   16285.33316686  .00000042  00000-0  10000-3 0  9991
2 36402  65.2829  73.1096 0002390 114.0043 274.2713  2.13101873 51471
COSMOS 2465 (737)       
1 37138U 10041B   16285.11490247  .00000022  00000-0  00000+0 0  9991
2 37138  64.7972 312.6399 0036652 175.2200 163.3826  2.13103453 47531
COSMOS 2464 (736)       
1 37139U 10041C   16284.52555806  .00000019  00000-0  00000+0 0  9995
2 37139  64.8053 312.6566 0020749   7.1259  63.8827  2.13102651 47530
COSMOS 2471 (701K)      
1 37372U 11009A   16284.73833557  .00000044  00000-0  00000+0 0  9992
2 37372  65.2805  73.0776 0007170 221.3872 203.5303  2.13102784 43731
COSMOS 2474 (742)       
1 37829U 11055A   16284.79093403 -.00000001  00000-0  00000+0 0  9998
2 37829  64.5042 192.5673 0008258 251.4234 186.4469  2.13102249 39104
COSMOS 2476 (744)       
1 37867U 11064A   16285.14511709 -.00000000  00000-0  00000+0 0  9993
2 37867  64.4837 192.6340 0017650 246.0968 149.3571  2.13102018 38463
COSMOS 2477 (745)       
1 37868U 11064B   16284.47036013 -.00000001  00000-0  00000+0 0  9990
2 37868  64.4924 192.6983 0015671 247.3884 169.6750  2.13101961 38400
COSMOS 2475 (743)       
1 37869U 11064C   16284.46398120 -.00000001  00000-0  00000+0 0  9990
2 37869  64.4980 192.6878 0020926 274.0462  94.3546  2.13102259 38413
COSMOS 2485 (747)       
1 39155U 13019A   16284.66786372 -.00000001  00000-0  00000+0 0  9994
2 39155  64.6536 192.6250 0018040 240.8872 193.5446  2.13102136 26924
COSMOS 2492 (754)       
1 39620U 14012A   16285.43453978  .00000055  00000-0  33456+2 0  9995
2 39620  65.1733  73.0778 0013167 338.6195 357.5315  2.13103867 19888
COSMOS 2500 (755)       
1 40001U 14032A   16284.72448853  .00000043  00000-0  00000+0 0  9993
2 40001  65.1134  73.1171 0006499 184.0985 190.8698  2.13102885 18099
COSMOS 2501 (702K)      
1 40315U 14075A   16284.61489778  .00000017  00000-0  00000+0 0  9998
2 40315  64.5703 314.0755 0019456 233.8134 217.8238  2.13101677 14491
COSMOS 2514 (751)       
1 41330U 16008A   16285.44349615  .00000042  00000-0  00000+0 0  9999
2 41330  64.9140  73.2998 0009121 200.5113 185.3925  2.13103496  5276
COSMOS 2516 (753)       
1 41554U 16032A   16284.27264734  .00000016  00000-0  00000+0 0  9993
2 41554  64.7508 313.7894 0014128 225.3915 236.3505  2.13101569  2856
